QIANFAN-89              
1 63175U 25046S   25258.81377008  .00000149  00000+0  21249-3 0  9999
2 63175  88.9843 329.1210 0016753  27.9089 332.2957 13.50978869 35532
QIANFAN-90              
1 63176U 25046T   25258.84259154  .00000131  00000+0  18495-3 0  9994
2 63176  88.9843 329.0904 0013658  27.8184 332.3695 13.50977756 35554
